CCSDS_OEM_VERS = 1.0
CREATION_DATE  = 2017-05-11T11:16:47
ORIGINATOR     = GMAT USER

META_START
OBJECT_NAME          = MOPSSat_alt_35785_km_RAAN_90_086
OBJECT_ID            = SatId
CENTER_NAME          = Earth
REF_FRAME            = EME2000
TIME_SYSTEM          = UTC
START_TIME           = 2017-01-01T00:00:00.000
USEABLE_START_TIME   = 2017-01-01T00:00:00.000
USEABLE_STOP_TIME    = 2017-01-02T00:00:00.000
STOP_TIME            = 2017-01-02T00:00:00.000
INTERPOLATION        = Lagrange
INTERPOLATION_DEGREE = 7 
META_STOP


                                                                                   

2017-01-01T00:36:40.000  -6.802090424677801e+03   4.119000507961457e+04   1.188072632466202e+01  -3.064484808450747e+00  -5.009972117112190e-01   5.356622387051108e-03
2017-01-01T00:36:50.000  -6.832733406426785e+03   4.118498382561113e+04   1.193428947797785e+01  -3.064111375226105e+00  -5.032535603631766e-01   5.356007986948526e-03
2017-01-01T00:37:00.000  -6.863372645422797e+03   4.117994000954486e+04   1.198784647260957e+01  -3.063736264714628e+00  -5.055096251367511e-01   5.355390662207713e-03
2017-01-01T00:37:10.000  -6.894008125220918e+03   4.117487363420812e+04   1.204139727988381e+01  -3.063359477136096e+00  -5.077654047855741e-01   5.354770413173351e-03
2017-01-01T00:37:20.000  -6.924639829067445e+03   4.116978470245478e+04   1.209494187058713e+01  -3.062981012714916e+00  -5.100208980405619e-01   5.354147240197796e-03
2017-01-01T00:37:30.000  -6.955267740195002e+03   4.116467321715467e+04   1.214848021548176e+01  -3.062600871676738e+00  -5.122761036316473e-01   5.353521143635557e-03
2017-01-01T00:37:40.000  -6.985891841822346e+03   4.115953918119235e+04   1.220201228530530e+01  -3.062219054248356e+00  -5.145310202877653e-01   5.352892123843118e-03
2017-01-01T00:37:50.000  -7.016512116860410e+03   4.115438259751948e+04   1.225553805025682e+01  -3.061835560661611e+00  -5.167856467152093e-01   5.352260181185406e-03
2017-01-01T00:38:00.000  -7.047128548308466e+03   4.114920346908556e+04   1.230905748068944e+01  -3.061450391148226e+00  -5.190399816268001e-01   5.351625316027249e-03
2017-01-01T00:38:10.000  -7.077741119095039e+03   4.114400179886510e+04   1.236257054683221e+01  -3.061063545941856e+00  -5.212940237301734e-01   5.350987528736745e-03
2017-01-01T00:38:20.000  -7.108349812780330e+03   4.113877758973874e+04   1.241607722001792e+01  -3.060675025269202e+00  -5.235477717794993e-01   5.350346819670634e-03
2017-01-01T00:38:30.000  -7.138954612851995e+03   4.113353084461235e+04   1.246957747145226e+01  -3.060284829358910e+00  -5.258012245236299e-01   5.349703189188946e-03
2017-01-01T00:38:40.000  -7.169555502906996e+03   4.112826156638645e+04   1.252307127253152e+01  -3.059892958439276e+00  -5.280543807194896e-01   5.349056637651228e-03
2017-01-01T00:38:50.000  -7.200152466162536e+03   4.112296975803793e+04   1.257655859398778e+01  -3.059499412744332e+00  -5.303072390960645e-01   5.348407165426587e-03
2017-01-01T00:39:00.000  -7.230745485859736e+03   4.111765542255304e+04   1.263003940659453e+01  -3.059104192508848e+00  -5.325597983841253e-01   5.347754772885436e-03
2017-01-01T00:39:10.000  -7.261334545170556e+03   4.111231856294275e+04   1.268351368100397e+01  -3.058707297969492e+00  -5.348120573093746e-01   5.347099460401420e-03
2017-01-01T00:39:20.000  -7.291919627234109e+03   4.110695918223811e+04   1.273698138781045e+01  -3.058308729364476e+00  -5.370640145951212e-01   5.346441228350840e-03
2017-01-01T00:39:30.000  -7.322500715173562e+03   4.110157728348600e+04   1.279044249758003e+01  -3.057908486933241e+00  -5.393156689635237e-01   5.345780077112104e-03
2017-01-01T00:39:40.000  -7.353077792132746e+03   4.109617286974262e+04   1.284389698091452e+01  -3.057506570915974e+00  -5.415670191382874e-01   5.345116007064958e-03
2017-01-01T00:39:50.000  -7.383650841293523e+03   4.109074594407192e+04   1.289734480848178e+01  -3.057102981553487e+00  -5.438180638459419e-01   5.344449018590272e-03
2017-01-01T00:40:00.000  -7.414219845911498e+03   4.108529650953745e+04   1.295078595107821e+01  -3.056697719086619e+00  -5.460688018184710e-01   5.343779112069047e-03
2017-01-01T00:40:10.000  -7.444784789223281e+03   4.107982456921971e+04   1.300422037946657e+01  -3.056290783757518e+00  -5.483192317864846e-01   5.343106287884537e-03
2017-01-01T00:40:20.000  -7.475345654848832e+03   4.107433012614176e+04   1.305764806507945e+01  -3.055882175804113e+00  -5.505693525088431e-01   5.342430546413128e-03
2017-01-01T00:40:30.000  -7.505902426303839e+03   4.106881318335880e+04   1.311106897916674e+01  -3.055471895466773e+00  -5.528191627367531e-01   5.341751888035323e-03
2017-01-01T00:40:40.000  -7.536455087184057e+03   4.106327374392452e+04   1.316448309311791e+01  -3.055059942985809e+00  -5.550686612273422e-01   5.341070313131620e-03
2017-01-01T00:40:50.000  -7.567003620450960e+03   4.105771181102053e+04   1.321789037721314e+01  -3.054646318611097e+00  -5.573178466910620e-01   5.340385822098416e-03
2017-01-01T00:41:00.000  -7.597548009146150e+03   4.105212738782706e+04   1.327129080187229e+01  -3.054231022592462e+00  -5.595667178442899e-01   5.339698415332125e-03
2017-01-01T00:41:10.000  -7.628088236206931e+03   4.104652047755628e+04   1.332468433733249e+01  -3.053814055182153e+00  -5.618152733957485e-01   5.339008093233244e-03
2017-01-01T00:41:20.000  -7.658624284954431e+03   4.104089108336508e+04   1.337807095450148e+01  -3.053395416628360e+00  -5.640635120824473e-01   5.338314856195690e-03
2017-01-01T00:41:30.000  -7.689156138690749e+03   4.103523920842662e+04   1.343145062425331e+01  -3.052975107180539e+00  -5.663114326400184e-01   5.337618704615537e-03
2017-01-01T00:41:40.000  -7.719683780791850e+03   4.102956485591377e+04   1.348482331759079e+01  -3.052553127088175e+00  -5.685590338095593e-01   5.336919638889015e-03
2017-01-01T00:41:50.000  -7.750207194671333e+03   4.102386802900438e+04   1.353818900558214e+01  -3.052129476601169e+00  -5.708063143349632e-01   5.336217659413108e-03
2017-01-01T00:42:00.000  -7.780726363763602e+03   4.101814873088562e+04   1.359154765933155e+01  -3.051704155970169e+00  -5.730532729616801e-01   5.335512766586125e-03
2017-01-01T00:42:10.000  -7.811241271487337e+03   4.101240696476069e+04   1.364489924991532e+01  -3.051277165447072e+00  -5.752999084340298e-01   5.334804960808529e-03
2017-01-01T00:42:20.000  -7.841751901228187e+03   4.100664273385093e+04   1.369824374835162e+01  -3.050848505285169e+00  -5.775462194939248e-01   5.334094242483198e-03
2017-01-01T00:42:30.000  -7.872258236303163e+03   4.100085604140406e+04   1.375158112553819e+01  -3.050418175739767e+00  -5.797922048782499e-01   5.333380612016423e-03
2017-01-01T00:42:40.000  -7.902760260053183e+03   4.099504689067601e+04   1.380491135241422e+01  -3.049986177066832e+00  -5.820378633256768e-01   5.332664069815692e-03
2017-01-01T00:42:50.000  -7.933257955441612e+03   4.098921528500960e+04   1.385823439925830e+01  -3.049552509528848e+00  -5.842831935471076e-01   5.331944616299376e-03
2017-01-01T00:43:00.000  -7.963751305540886e+03   4.098336122773964e+04   1.391155023653934e+01  -3.049117173387748e+00  -5.865281942615002e-01   5.331222251885025e-03
2017-01-01T00:43:10.000  -7.994240293351502e+03   4.097748472222804e+04   1.396485883460009e+01  -3.048680168907538e+00  -5.887728641825434e-01   5.330496976993706e-03
2017-01-01T00:43:20.000  -8.024724902503427e+03   4.097158577172877e+04   1.401816016488345e+01  -3.048241496344243e+00  -5.910172020702953e-01   5.329768792033350e-03
2017-01-01T00:43:30.000  -8.055205116556437e+03   4.096566437952231e+04   1.407145419870925e+01  -3.047801155955916e+00  -5.932612066796725e-01   5.329037697415331e-03
2017-01-01T00:43:40.000  -8.085680919158761e+03   4.095972054888562e+04   1.412474090755151e+01  -3.047359148000393e+00  -5.955048767721319e-01   5.328303693550755e-03
2017-01-01T00:43:50.000  -8.116152293651775e+03   4.095375428316599e+04   1.417802026234740e+01  -3.046915472740791e+00  -5.977482110865644e-01   5.327566780859555e-03
2017-01-01T00:44:00.000  -8.146619223363665e+03   4.094776558572699e+04   1.423129223401062e+01  -3.046470130441501e+00  -5.999912083609173e-01   5.326826959763862e-03
2017-01-01T00:44:10.000  -8.177081691609208e+03   4.094175445994747e+04   1.428455679343100e+01  -3.046023121368083e+00  -6.022338673321772e-01   5.326084230687837e-03
2017-01-01T00:44:20.000  -8.207539681397458e+03   4.093572090928204e+04   1.433781391096339e+01  -3.045574445791794e+00  -6.044761867148517e-01   5.325338594065213e-03
2017-01-01T00:44:30.000  -8.237993175825713e+03   4.092966493718055e+04   1.439106355711652e+01  -3.045124103983585e+00  -6.067181652299719e-01   5.324590050329296e-03
2017-01-01T00:44:40.000  -8.268442157924252e+03   4.092358654711951e+04   1.444430570228157e+01  -3.044672096216438e+00  -6.089598015936631e-01   5.323838599916851e-03
2017-01-01T00:44:50.000  -8.298886611343522e+03   4.091748574246497e+04   1.449754031793369e+01  -3.044218422755174e+00  -6.112010945677335e-01   5.323084243251150e-03
2017-01-01T00:45:00.000  -8.329326519666925e+03   4.091136252660938e+04   1.455076737543040e+01  -3.043763083866629e+00  -6.134420429090834e-01   5.322326980758894e-03
2017-01-01T00:45:10.000  -8.359761866566285e+03   4.090521690294107e+04   1.460398684628342e+01  -3.043306079817380e+00  -6.156826453811506e-01   5.321566812866444e-03
2017-01-01T00:45:20.000  -8.390192635407060e+03   4.089904887492073e+04   1.465719870146842e+01  -3.042847410879436e+00  -6.179229007248456e-01   5.320803740009271e-03
2017-01-01T00:45:30.000  -8.420618809541635e+03   4.089285844602546e+04   1.471040291193777e+01  -3.042387077326083e+00  -6.201628076801436e-01   5.320037762625044e-03
2017-01-01T00:45:40.000  -8.451040372309080e+03   4.088664561974764e+04   1.476359944862019e+01  -3.041925079431786e+00  -6.224023649860692e-01   5.319268881153486e-03
